[{"OBJECT_NAME":"STARLINK-34773","OBJECT_ID":"2025-161K","EPOCH":"2026-03-09T21:30:34.322112","MEAN_MOTION":15.3020046,"ECCENTRICITY":9.655e-5,"INCLINATION":53.1583,"RA_OF_ASC_NODE":293.0884,"ARG_OF_PERICENTER":88.6247,"MEAN_ANOMALY":271.4864,"EPHEMERIS_TYPE":0,"CLASSIFICATION_TYPE":"U","NORAD_CAT_ID":65024,"ELEMENT_SET_NO":999,"REV_AT_EPOCH":3535,"BSTAR":0.00079867893,"MEAN_MOTION_DOT":0.0002337,"MEAN_MOTION_DDOT":0},{"OBJECT_NAME":"ELECTRON KICK STAGE R\/B","OBJECT_ID":"2025-061J","EPOCH":"2026-03-09T21:50:35.145600","MEAN_MOTION":15.31602074,"ECCENTRICITY":0.00402669,"INCLINATION":97.5479,"RA_OF_ASC_NODE":52.3854,"ARG_OF_PERICENTER":150.2628,"MEAN_ANOMALY":210.0914,"EPHEMERIS_TYPE":0,"CLASSIFICATION_TYPE":"U","NORAD_CAT_ID":63359,"ELEMENT_SET_NO":999,"REV_AT_EPOCH":5306,"BSTAR":0.0006963674,"MEAN_MOTION_DOT":0.00021749,"MEAN_MOTION_DDOT":0}]
